{
  "type": "FeatureCollection",
  "features": [
    {
      "type": "Feature",
      "properties": {
        "norad_id": 66940,
        "name": "STARLINK-36121",
        "group": "last-30-days",
        "lat": -49.20293655004676,
        "lon": -67.79849759377865,
        "alt_km": 378.84976611876937,
        "timestamp": "2025-12-24T07:45:04.934148+00:00",
        "meta_object_name": "STARLINK-36121",
        "meta_object_id": "2025-286R",
        "meta_epoch": "2025-12-23T22:00:01.999584",
        "meta_mean_motion": 15.66747517,
        "meta_eccentricity": 0.00014373,
        "meta_inclination": 53.159,
        "meta_ra_of_asc_node": 354.5002,
        "meta_arg_of_pericenter": 93.3624,
        "meta_mean_anomaly": 63.9689,
        "meta_ephemeris_type": 0,
        "meta_classification_type": "U",
        "meta_norad_cat_id": 66940,
        "meta_element_set_no": 999,
        "meta_rev_at_epoch": 378,
        "meta_bstar": -0.020724533,
        "meta_mean_motion_dot": -0.01963698,
        "meta_mean_motion_ddot": 0,
        "tle_line1": "1 66940U 25286R   25357.91668981 -.01963698  00000+0 -20725-1 0  9998",
        "tle_line2": "2 66940  53.1590 354.5002 0001437  93.3624  63.9689 15.66747517  3789"
      },
      "geometry": {
        "type": "Point",
        "coordinates": [
          -67.79849759377865,
          -49.20293655004676
        ]
      }
    },
    {
      "type": "Feature",
      "properties": {
        "norad_id": 66941,
        "name": "STARLINK-36088",
        "group": "last-30-days",
        "lat": -45.47677968100788,
        "lon": -57.17907301258552,
        "alt_km": 373.6246870355917,
        "timestamp": "2025-12-24T07:45:04.934157+00:00",
        "meta_object_name": "STARLINK-36088",
        "meta_object_id": "2025-286S",
        "meta_epoch": "2025-12-23T22:00:01.999584",
        "meta_mean_motion": 15.68444847,
        "meta_eccentricity": 0.0001443,
        "meta_inclination": 53.1591,
        "meta_ra_of_asc_node": 354.4886,
        "meta_arg_of_pericenter": 89.3248,
        "meta_mean_anomaly": 73.6004,
        "meta_ephemeris_type": 0,
        "meta_classification_type": "U",
        "meta_norad_cat_id": 66941,
        "meta_element_set_no": 999,
        "meta_rev_at_epoch": 378,
        "meta_bstar": -0.018713956,
        "meta_mean_motion_dot": -0.01908639,
        "meta_mean_motion_ddot": 0,
        "tle_line1": "1 66941U 25286S   25357.91668981 -.01908639  00000+0 -18714-1 0  9998",
        "tle_line2": "2 66941  53.1591 354.4886 0001443  89.3248  73.6004 15.68444847  3785"
      },
      "geometry": {
        "type": "Point",
        "coordinates": [
          -57.17907301258552,
          -45.47677968100788
        ]
      }
    },
    {
      "type": "Feature",
      "properties": {
        "norad_id": 66942,
        "name": "STARLINK-36100",
        "group": "last-30-days",
        "lat": -48.41344867302987,
        "lon": -65.15398813699005,
        "alt_km": 378.79501739468196,
        "timestamp": "2025-12-24T07:45:04.934167+00:00",
        "meta_object_name": "STARLINK-36100",
        "meta_object_id": "2025-286T",
        "meta_epoch": "2025-12-23T22:00:01.999584",
        "meta_mean_motion": 15.66741861,
        "meta_eccentricity": 0.0001371,
        "meta_inclination": 53.1589,
        "meta_ra_of_asc_node": 354.4962,
        "meta_arg_of_pericenter": 101.3381,
        "meta_mean_anomaly": 57.9116,
        "meta_ephemeris_type": 0,
        "meta_classification_type": "U",
        "meta_norad_cat_id": 66942,
        "meta_element_set_no": 999,
        "meta_rev_at_epoch": 371,
        "meta_bstar": -0.020626727,
        "meta_mean_motion_dot": -0.01955074,
        "meta_mean_motion_ddot": 0,
        "tle_line1": "1 66942U 25286T   25357.91668981 -.01955074  00000+0 -20627-1 0  9990",
        "tle_line2": "2 66942  53.1589 354.4962 0001371 101.3381  57.9116 15.66741861  3717"
      },
      "geometry": {
        "type": "Point",
        "coordinates": [
          -65.15398813699005,
          -48.41344867302987
        ]
      }
    },
    {
      "type": "Feature",
      "properties": {
        "norad_id": 66943,
        "name": "STARLINK-36109",
        "group": "last-30-days",
        "lat": -47.56621340561825,
        "lon": -62.59586104410236,
        "alt_km": 378.6782842286566,
        "timestamp": "2025-12-24T07:45:04.934179+00:00",
        "meta_object_name": "STARLINK-36109",
        "meta_object_id": "2025-286U",
        "meta_epoch": "2025-12-23T22:00:01.999584",
        "meta_mean_motion": 15.66745421,
        "meta_eccentricity": 0.00012753,
        "meta_inclination": 53.1591,
        "meta_ra_of_asc_node": 354.4921,
        "meta_arg_of_pericenter": 96.4666,
        "meta_mean_anomaly": 64.6981,
        "meta_ephemeris_type": 0,
        "meta_classification_type": "U",
        "meta_norad_cat_id": 66943,
        "meta_element_set_no": 999,
        "meta_rev_at_epoch": 371,
        "meta_bstar": -0.020670528,
        "meta_mean_motion_dot": -0.01958915,
        "meta_mean_motion_ddot": 0,
        "tle_line1": "1 66943U 25286U   25357.91668981 -.01958915  00000+0 -20671-1 0  9997",
        "tle_line2": "2 66943  53.1591 354.4921 0001275  96.4666  64.6981 15.66745421  3710"
      },
      "geometry": {
        "type": "Point",
        "coordinates": [
          -62.59586104410236,
          -47.56621340561825
        ]
      }
    },
    {
      "type": "Feature",
      "properties": {
        "norad_id": 66944,
        "name": "STARLINK-36112",
        "group": "last-30-days",
        "lat": -46.66436166631094,
        "lon": -60.124485434507,
        "alt_km": 378.80622417741233,
        "timestamp": "2025-12-24T07:45:04.934189+00:00",
        "meta_object_name": "STARLINK-36112",
        "meta_object_id": "2025-286V",
        "meta_epoch": "2025-12-23T22:00:01.999584",
        "meta_mean_motion": 15.6674362,
        "meta_eccentricity": 0.00015402,
        "meta_inclination": 53.159,
        "meta_ra_of_asc_node": 354.4878,
        "meta_arg_of_pericenter": 95.6942,
        "meta_mean_anomaly": 67.3862,
        "meta_ephemeris_type": 0,
        "meta_classification_type": "U",
        "meta_norad_cat_id": 66944,
        "meta_element_set_no": 999,
        "meta_rev_at_epoch": 378,
        "meta_bstar": -0.020629021,
        "meta_mean_motion_dot": -0.01955518,
        "meta_mean_motion_ddot": 0,
        "tle_line1": "1 66944U 25286V   25357.91668981 -.01955518  00000+0 -20629-1 0  9997",
        "tle_line2": "2 66944  53.1590 354.4878 0001540  95.6942  67.3862 15.66743620  3788"
      },
      "geometry": {
        "type": "Point",
        "coordinates": [
          -60.124485434507,
          -46.66436166631094
        ]
      }
    },
    {
      "type": "Feature",
      "properties": {
        "norad_id": 66945,
        "name": "STARLINK-36110",
        "group": "last-30-days",
        "lat": -45.7095096056498,
        "lon": -57.73236120586665,
        "alt_km": 378.6905081158902,
        "timestamp": "2025-12-24T07:45:04.934199+00:00",
        "meta_object_name": "STARLINK-36110",
        "meta_object_id": "2025-286W",
        "meta_epoch": "2025-12-23T22:00:01.999584",
        "meta_mean_motion": 15.6674282,
        "meta_eccentricity": 0.00014535,
        "meta_inclination": 53.1591,
        "meta_ra_of_asc_node": 354.4839,
        "meta_arg_of_pericenter": 92.5873,
        "meta_mean_anomaly": 72.4133,
        "meta_ephemeris_type": 0,
        "meta_classification_type": "U",
        "meta_norad_cat_id": 66945,
        "meta_element_set_no": 999,
        "meta_rev_at_epoch": 378,
        "meta_bstar": -0.020644739,
        "meta_mean_motion_dot": -0.01956709,
        "meta_mean_motion_ddot": 0,
        "tle_line1": "1 66945U 25286W   25357.91668981 -.01956709  00000+0 -20645-1 0  9999",
        "tle_line2": "2 66945  53.1591 354.4839 0001453  92.5873  72.4133 15.66742820  3788"
      },
      "geometry": {
        "type": "Point",
        "coordinates": [
          -57.73236120586665,
          -45.7095096056498
        ]
      }
    },
    {
      "type": "Feature",
      "properties": {
        "norad_id": 66946,
        "name": "STARLINK-36115",
        "group": "last-30-days",
        "lat": -44.706106448099874,
        "lon": -55.42311448156938,
        "alt_km": 378.61237562758924,
        "timestamp": "2025-12-24T07:45:04.934209+00:00",
        "meta_object_name": "STARLINK-36115",
        "meta_object_id": "2025-286X",
        "meta_epoch": "2025-12-23T22:00:01.999584",
        "meta_mean_motion": 15.66747838,
        "meta_eccentricity": 0.00013914,
        "meta_inclination": 53.159,
        "meta_ra_of_asc_node": 354.4797,
        "meta_arg_of_pericenter": 95.4678,
        "meta_mean_anomaly": 71.4442,
        "meta_ephemeris_type": 0,
        "meta_classification_type": "U",
        "meta_norad_cat_id": 66946,
        "meta_element_set_no": 999,
        "meta_rev_at_epoch": 378,
        "meta_bstar": -0.020675307,
        "meta_mean_motion_dot": -0.01959572,
        "meta_mean_motion_ddot": 0,
        "tle_line1": "1 66946U 25286X   25357.91668981 -.01959572  00000+0 -20675-1 0  9994",
        "tle_line2": "2 66946  53.1590 354.4797 0001391  95.4678  71.4442 15.66747838  3783"
      },
      "geometry": {
        "type": "Point",
        "coordinates": [
          -55.42311448156938,
          -44.706106448099874
        ]
      }
    }
  ]
}